OBJECT_NAME,OBJECT_ID,EPOCH,MEAN_MOTION,ECCENTRICITY,INCLINATION,RA_OF_ASC_NODE,ARG_OF_PERICENTER,MEAN_ANOMALY,EPHEMERIS_TYPE,CLASSIFICATION_TYPE,NORAD_CAT_ID,ELEMENT_SET_NO,REV_AT_EPOCH,BSTAR,MEAN_MOTION_DOT,MEAN_MOTION_DDOT
STARLINK-4409,2022-084Q,2024-08-19T09:55:55.908192,15.01270738,.0002573,97.6542,292.3368,248.6236,111.4714,0,U,53203,999,11420,.25519E-3,.3221E-4,0
STARLINK-4410,2022-084R,2024-08-19T14:48:55.874304,15.02225056,.0003249,97.6536,292.5426,327.1255,32.9768,0,U,53204,999,11461,.21373E-1,.293517E-2,0
STARLINK-4397,2022-084S,2024-08-19T09:50:36.292992,15.01260978,.0003372,97.6541,292.3316,226.1498,133.9448,0,U,53205,999,11420,.58062E-4,.687E-5,0
STARLINK-4408,2022-084T,2024-08-19T03:10:41.159712,15.01273129,.0001312,97.6556,292.0938,206.4511,153.6646,0,U,53206,999,11416,.55985E-3,.7142E-4,0
STARLINK-4413,2022-084U,2024-08-19T09:47:56.449536,15.01266164,.0003884,97.6541,292.3302,212.3920,147.7067,0,U,53207,999,11420,.20754E-3,.2608E-4,0
STARLINK-4425,2022-084V,2024-08-19T09:58:35.901984,15.01269770,.0002062,97.6538,292.3389,236.2948,123.8079,0,U,53208,999,11420,.12001E-3,.1483E-4,0
STARLINK-4423,2022-084W,2024-08-19T14:33:33.851520,15.01264763,.000305,97.6546,292.5264,212.4736,147.6301,0,U,53209,999,11423,.15973E-3,.1993E-4,0
STARLINK-4427,2022-084X,2024-08-19T14:41:12.905088,15.01260089,.0003019,97.6538,292.5313,234.5477,125.5466,0,U,53210,999,11477,.51112E-4,.597E-5,0
STARLINK-4419,2022-084Y,2024-08-19T17:37:32.061504,15.01251948,.0000964,97.6554,292.6548,228.4365,131.6776,0,U,53211,999,11463,.2955E-3,.3738E-4,0
STARLINK-4416,2022-084Z,2024-08-19T09:45:16.602624,15.01260948,.0003373,97.6545,292.3277,205.3788,154.7271,0,U,53212,999,11420,.70596E-4,.848E-5,0
STARLINK-4414,2022-084AA,2024-08-19T03:08:01.561632,15.01275110,.0000218,97.6553,292.0567,207.3619,152.7594,0,U,53213,999,11468,.28448E-3,.3598E-4,0
STARLINK-4353,2022-084AB,2024-08-19T09:42:36.059328,15.01266518,.000251,97.6547,292.3260,208.3147,151.7941,0,U,53214,999,11420,.15869E-3,.198E-4,0
STARLINK-4335,2022-084AC,2024-08-19T03:05:22.127712,15.01269921,.0001451,97.6566,292.0562,86.8034,273.3356,0,U,53215,999,11468,.51019E-3,.6502E-4,0
STARLINK-4376,2022-084AD,2024-08-19T17:37:10.752672,15.01260030,.0000388,97.6568,292.6525,224.2143,135.9051,0,U,53216,999,11463,.13207E-2,.16945E-3,0
STARLINK-4379,2022-084AE,2024-08-19T10:49:15.552480,15.01268953,.0001512,97.6552,292.4056,73.5346,286.6044,0,U,53217,999,11421,.93849E-4,.1147E-4,0
STARLINK-4384,2022-084AF,2024-08-19T10:52:16.000608,15.01276613,.0000864,97.6567,292.4200,162.0436,198.0819,0,U,53218,999,11473,.14358E-3,.1786E-4,0
STARLINK-4373,2022-084AG,2024-08-19T02:54:41.711040,15.01265211,.0000051,97.6586,292.0643,301.0417,59.0802,0,U,53219,999,11416,.17279E-3,.2161E-4,0
STARLINK-4363,2022-084AH,2024-08-19T03:02:42.304992,15.01240252,.000043,97.6581,292.0577,196.7364,163.3846,0,U,53220,999,11468,.51453E-3,.6552E-4,0
STARLINK-4377,2022-084AJ,2024-08-19T10:51:55.467648,15.01274385,.0001414,97.6564,292.3891,80.9711,279.1673,0,U,53221,999,11421,.21564E-3,.2713E-4,0
STARLINK-4381,2022-084AK,2024-08-19T03:00:01.276128,15.01259439,.0001313,97.6565,292.0573,113.9338,246.2024,0,U,53222,999,11416,-.44927E-4,-.636E-5,0
STARLINK-4354,2022-084AL,2024-08-19T04:36:21.760128,15.01267869,.0001373,97.6594,292.1083,89.4277,270.7105,0,U,53223,999,11417,.17712E-3,.2217E-4,0
STARLINK-4356,2022-084AM,2024-08-19T10:57:15.167520,15.01269810,.0000316,97.6584,292.3899,124.4763,235.6491,0,U,53224,999,11421,.19534E-3,.2452E-4,0
STARLINK-4358,2022-084AN,2024-08-19T10:43:56.180928,15.01266151,.0001249,97.6557,292.3864,102.0092,258.1272,0,U,53225,999,11421,.10454E-3,.1284E-4,0
STARLINK-4359,2022-084AP,2024-08-19T10:41:16.887840,15.01289419,.0000866,97.6547,292.3972,74.9511,285.1808,0,U,53226,999,11421,.73078E-3,.9347E-4,0
STARLINK-4366,2022-084AQ,2024-08-19T15:15:52.704288,15.01251579,.0002242,97.6516,292.5850,94.5801,265.5679,0,U,53227,999,11424,-.21983E-3,-.2881E-4,0
STARLINK-4365,2022-084AR,2024-08-19T10:46:36.240384,15.01266218,.0001549,97.6555,292.3881,93.5819,266.5582,0,U,53228,999,11421,.86244E-4,.1049E-4,0
STARLINK-4367,2022-084AS,2024-08-19T10:38:36.264192,15.01267019,.0001177,97.6549,292.3826,95.3312,264.8047,0,U,53229,999,11421,.3624E-4,.407E-5,0
STARLINK-4364,2022-084AT,2024-08-19T10:44:14.665344,15.01297397,.0002102,97.6534,292.3796,90.8236,269.3229,0,U,53230,999,11421,.3874E-3,.4925E-4,0
STARLINK-4370,2022-084AU,2024-08-19T10:33:17.114688,15.01260720,.0002105,97.6543,292.3781,96.4079,263.7385,0,U,53231,999,11421,-.18069E-4,-.291E-5,0
STARLINK-4371,2022-084AV,2024-08-19T10:35:56.448384,15.01265100,.0001939,97.6545,292.3797,81.6170,278.5274,0,U,53232,999,11421,.96658E-4,.1183E-4,0
