STARLINK-4409           
1 53203U 22084Q   24232.41384153  .00003221  00000+0  25519-3 0  9993
2 53203  97.6542 292.3368 0002573 248.6236 111.4714 15.01270738114200
STARLINK-4410           
1 53204U 22084R   24232.61731336  .00293517  00000+0  21373-1 0  9996
2 53204  97.6536 292.5426 0003249 327.1255  32.9768 15.02225056114611
STARLINK-4397           
1 53205U 22084S   24232.41014228  .00000687  00000+0  58062-4 0  9991
2 53205  97.6541 292.3316 0003372 226.1498 133.9448 15.01260978114201
STARLINK-4408           
1 53206U 22084T   24232.13242083  .00007142  00000+0  55985-3 0  9996
2 53206  97.6556 292.0938 0001312 206.4511 153.6646 15.01273129114160
STARLINK-4413           
1 53207U 22084U   24232.40829224  .00002608  00000+0  20754-3 0  9993
2 53207  97.6541 292.3302 0003884 212.3920 147.7067 15.01266164114206
STARLINK-4425           
1 53208U 22084V   24232.41569331  .00001483  00000+0  12001-3 0  9991
2 53208  97.6538 292.3389 0002062 236.2948 123.8079 15.01269770114204
STARLINK-4423           
1 53209U 22084W   24232.60664180  .00001993  00000+0  15973-3 0  9998
2 53209  97.6546 292.5264 0003050 212.4736 147.6301 15.01264763114239
STARLINK-4427           
1 53210U 22084X   24232.61195492  .00000597  00000+0  51112-4 0  9991
2 53210  97.6538 292.5313 0003019 234.5477 125.5466 15.01260089114772
STARLINK-4419           
1 53211U 22084Y   24232.73439886  .00003738  00000+0  29550-3 0  9993
2 53211  97.6554 292.6548 0000964 228.4365 131.6776 15.01251948114637
STARLINK-4416           
1 53212U 22084Z   24232.40644216  .00000848  00000+0  70596-4 0  9999
2 53212  97.6545 292.3277 0003373 205.3788 154.7271 15.01260948114203
STARLINK-4414           
1 53213U 22084AA  24232.13057363  .00003598  00000+0  28448-3 0  9994
2 53213  97.6553 292.0567 0000218 207.3619 152.7594 15.01275110114687
STARLINK-4353           
1 53214U 22084AB  24232.40458402  .00001980  00000+0  15869-3 0  9990
2 53214  97.6547 292.3260 0002510 208.3147 151.7941 15.01266518114203
STARLINK-4335           
1 53215U 22084AC  24232.12872833  .00006502  00000+0  51019-3 0  9990
2 53215  97.6566 292.0562 0001451  86.8034 273.3356 15.01269921114688
STARLINK-4376           
1 53216U 22084AD  24232.73415223  .00016945  00000+0  13207-2 0  9992
2 53216  97.6568 292.6525 0000388 224.2143 135.9051 15.01260030114635
STARLINK-4379           
1 53217U 22084AE  24232.45087445  .00001147  00000+0  93849-4 0  9993
2 53217  97.6552 292.4056 0001512  73.5346 286.6044 15.01268953114218
STARLINK-4384           
1 53218U 22084AF  24232.45296297  .00001786  00000+0  14358-3 0  9997
2 53218  97.6567 292.4200 0000864 162.0436 198.0819 15.01276613114734
STARLINK-4373           
1 53219U 22084AG  24232.12131610  .00002161  00000+0  17279-3 0  9992
2 53219  97.6586 292.0643 0000051 301.0417  59.0802 15.01265211114162
STARLINK-4363           
1 53220U 22084AH  24232.12687853  .00006552  00000+0  51453-3 0  9999
2 53220  97.6581 292.0577 0000430 196.7364 163.3846 15.01240252114688
STARLINK-4377           
1 53221U 22084AJ  24232.45272532  .00002713  00000+0  21564-3 0  9995
2 53221  97.6564 292.3891 0001414  80.9711 279.1673 15.01274385114212
STARLINK-4381           
1 53222U 22084AK  24232.12501477 -.00000636  00000+0 -44927-4 0  9996
2 53222  97.6565 292.0573 0001313 113.9338 246.2024 15.01259439114160
STARLINK-4354           
1 53223U 22084AL  24232.19191852  .00002217  00000+0  17712-3 0  9992
2 53223  97.6594 292.1083 0001373  89.4277 270.7105 15.01267869114174
STARLINK-4356           
1 53224U 22084AM  24232.45642555  .00002452  00000+0  19534-3 0  9998
2 53224  97.6584 292.3899 0000316 124.4763 235.6491 15.01269810114218
STARLINK-4358           
1 53225U 22084AN  24232.44717802  .00001284  00000+0  10454-3 0  9990
2 53225  97.6557 292.3864 0001249 102.0092 258.1272 15.01266151114216
STARLINK-4359           
1 53226U 22084AP  24232.44533435  .00009347  00000+0  73078-3 0  9998
2 53226  97.6547 292.3972 0000866  74.9511 285.1808 15.01289419114210
STARLINK-4366           
1 53227U 22084AQ  24232.63602667 -.00002881  00000+0 -21983-3 0  9990
2 53227  97.6516 292.5850 0002242  94.5801 265.5679 15.01251579114241
STARLINK-4365           
1 53228U 22084AR  24232.44903056  .00001049  00000+0  86244-4 0  9991
2 53228  97.6555 292.3881 0001549  93.5819 266.5582 15.01266218114211
STARLINK-4367           
1 53229U 22084AS  24232.44347528  .00000407  00000+0  36240-4 0  9996
2 53229  97.6549 292.3826 0001177  95.3312 264.8047 15.01267019114216
STARLINK-4364           
1 53230U 22084AT  24232.44739196  .00004925  00000+0  38740-3 0  9999
2 53230  97.6534 292.3796 0002102  90.8236 269.3229 15.01297397114216
STARLINK-4370           
1 53231U 22084AU  24232.43978142 -.00000291  00000+0 -18069-4 0  9992
2 53231  97.6543 292.3781 0002105  96.4079 263.7385 15.01260720114212
STARLINK-4371           
1 53232U 22084AV  24232.44162556  .00001183  00000+0  96658-4 0  9997
2 53232  97.6545 292.3797 0001939  81.6170 278.5274 15.01265100114212
